P/2018 P4 (PANSTARRS),e,23.1065,353.0853,8.1756,6.668446,0.0572357,0.45020753,35.9624,07/28.0/2020,2000,g 12.0,4.0
# From MPC118094
C/2018 P5 (PANSTARRS),e,7.2545,216.2450,131.6863,12.78368,0.0215635,0.64200071,11.1543,07/28.0/2020,2000,g 11.0,4.0
# From MPC118841
C/2018 R3 (Lemmon),e,69.7246,324.6328,112.8557,1764,0.0000133,0.99926856,0.0000,06/07.1978/2019,2000,g  9.5,4.0
# From MPC112393
C/2018 R4 (Fuls),e,11.6839,298.4335,345.2490,323.9308,0.0001691,0.99471470,0.0000,03/03.6953/2018,2000,g 14.0,4.0
# From MPC114603
C/2018 R5 (Lemmon),e,103.7488,171.1350,178.0338,22.79067,0.0090588,0.84106993,5.1181,07/28.0/2020,2000,g 11.5,4.0
# From MPC119996
C/2018 U1 (Lemmon),h,11/02.7892/2021,108.3014,75.4771,180.4187,1.000723,4.993895,2000,5.0,4.0
# From MPC114604
C/2018 V1 (Machholz-Fujikawa-Iwamoto),h,12/03.4343/2018,144.0533,128.8773,88.8319,1.000390,0.385758,2000,12.0,4.0
# From MPC115884
C/2018 V2 (ATLAS),e,159.1491,356.9614,318.9043,25.41470,0.0076927,0.90246643,4.6859,07/28.0/2020,2000,g 15.0,4.0
# From MPC114604
P/2018 VN2 (Leonard),e,18.2473,226.5306,138.7255,4.064864,0.1202639,0.47828385,94.2312,07/28.0/2020,2000,g 15.0,4.0
# From MPC117070
A/2018 V3,e,164.9779,308.6570,3.4994,120.6920,0.0007433,0.98890022,0.0000,09/08.6773/2019,2000,g 15.7,2.0
# From MPC114604
C/2018 V4 (Africano),e,69.0034,78.3759,359.9609,208.5442,0.0003273,0.98466481,0.0000,03/01.4911/2019,2000,g 12.5,4.0
# From MPC114604
P/2018 V5 (Trujillo-Sheppard),e,10.5833,171.2945,260.7227,8.954408,0.0367831,0.47448503,24.4259,07/28.0/2020,2000,g 12.5,4.0
# From MPC115884
C/2018 W1 (Catalina),e,83.2576,233.5911,251.2557,21.75798,0.0097113,0.93746854,4.3040,07/28.0/2020,2000,g 15.7,2.0
# From MPC119996
C/2018 W2 (Africano),h,09/05.7061/2019,116.6169,181.8537,157.9750,1.000565,1.454761,2000,9.5,4.0
# From MPC119996
C/2018 X2 (Fitzsimmons),e,23.0695,340.8286,162.0597,150.1133,0.0005359,0.98583539,0.0000,07/08.5122/2019,2000,g 12.0,4.0
# From MPC114604
C/2018 X3 (PANSTARRS),e,43.3692,78.9181,359.7773,12.38666,0.0226086,0.78222125,13.0088,07/28.0/2020,2000,g 14.5,4.0
# From MPC118842
C/2018 Y1 (Iwamoto),e,160.4012,147.5057,358.0429,143.2480,0.0005749,0.99102307,0.0000,02/07.0421/2019,2000,g 11.5,4.0
# From MPC114605
P/2018 Y2 (Africano),e,11.6829,297.2679,162.4033,7.465773,0.0483161,0.47869743,27.6855,07/28.0/2020,2000,g 11.5,4.0
# From MPC114605
P/2019 A1 (PANSTARRS),e,13.7442,312.3033,150.8158,5.124908,0.0849523,0.56842021,55.7432,07/28.0/2020,2000,g 16.0,4.0
# From MPC114605
P/2019 A2 (ATLAS),e,14.8602,139.4663,324.1241,5.725411,0.0719439,0.38140092,44.2566,07/28.0/2020,2000,g 10.5,4.0
# From MPC114605
P/2019 A3 (PANSTARRS),e,15.3653,31.3118,325.4762,3.147199,0.1765297,0.26536426,128.1615,07/28.0/2020,2000,g 16.0,4.0
# From MPC114605
P/2019 A4 (PANSTARRS),e,13.3207,119.3000,341.6692,2.613221,0.2333135,0.08913250,140.3562,07/28.0/2020,2000,g 15.0,4.0
# From MPC118842
C/2019 A5 (PANSTARRS),e,67.5540,146.6235,356.0057,21.61042,0.0098109,0.70737887,4.0713,07/28.0/2020,2000,g  9.5,4.0
# From MPC114605
P/2019 A6 (Lemmon-PANSTARRS),e,33.2292,280.2741,156.2371,5.365007,0.0793138,0.63891061,55.4286,07/28.0/2020,2000,g 16.0,4.0
# From MPC114605
P/2019 A7 (PANSTARRS),e,17.7743,280.5248,119.2998,3.186029,0.1733123,0.16099759,161.6579,07/28.0/2020,2000,g 13.5,4.0
# From MPC115884
P/2019 A8 (PANSTARRS),e,3.0056,127.6418,22.0647,3.365616,0.1596274,0.44430134,110.1954,07/28.0/2020,2000,g 16.0,4.0
# From MPC118842
C/2019 A9 (PANSTARRS),e,84.2992,278.3779,237.9247,39.88673,0.0039126,0.96417335,1.4372,07/28.0/2020,2000,g 15.0,4.0
# From MPC114606
C/2019 B1 (Africano),e,123.3630,290.4372,174.8580,148.9173,0.0005424,0.98927780,0.0000,03/19.8600/2019,2000,g 16.0,4.0
# From MPC115885
P/2019 B2 (Groeller),e,16.8263,176.4106,358.9189,3.857500,0.1300904,0.37315820,54.0460,07/28.0/2020,2000,g 14.5,4.0
# From MPC115885
C/2019 B3 (PANSTARRS),h,01/19.7794/2021,66.5374,358.4240,263.8904,1.002803,6.823733,2000,5.5,4.0
# From MPEC 2020-AA5
C/2019 C1,e,36.0194,212.3932,319.1947,796.0826,0.0000439,0.99173302,0.0000,05/05.7400/2020,2000,g 10.0,4.0
# From MPC118842
C/2019 D1 (Flewelling),e,34.0908,231.7195,70.5018,140.2864,0.0005932,0.98875070,0.0000,05/11.8755/2019,2000,g 13.0,4.0
# From MPC119997
C/2019 E3 (ATLAS),h,11/12.0203/2023,84.2862,347.2323,280.5963,1.004589,10.315551,2000,2.5,4.0
# From MPC119997
C/2019 F1 (ATLAS-Africano),h,06/22.7562/2021,54.1754,38.7261,251.1094,1.003522,3.595943,2000,5.5,4.0
# From MPC119997
C/2019 F2 (ATLAS),e,19.1872,175.8236,11.0561,16.64475,0.0145140,0.86579033,4.6873,07/28.0/2020,2000,g 12.0,4.0
# From MPEC 2020-AA5
A/2019 G2,e,159.2101,208.1493,82.6476,713.0948,0.0000518,0.99678699,0.0000,12/10.0410/2019,2000,g 16.5,2.0
# From MPC118094
A/2019 G4,h,09/15.9082/2018,138.3857,130.4644,287.8842,1.001102,5.858813,2000,13.0,2.0
# From MPC114607
P/2019 GG21 (PANSTARRS),e,6.0837,340.5920,208.4108,7.469040,0.0482844,0.47297323,21.4653,07/28.0/2020,2000,g 12.0,4.0
# From MPC115885
C/2019 H1 (NEOWISE),e,104.5776,269.1879,19.3043,230.8553,0.0002810,0.99200614,0.0000,04/27.7634/2019,2000,g 15.5,4.0
# From MPC118842
C/2019 J1 (Lemmon),e,24.5505,98.0876,167.7818,70.01331,0.0016824,0.96459408,0.8004,07/28.0/2020,2000,g 12.0,4.0
# From MPC115885
C/2019 J2 (Palomar),e,105.1402,25.4730,98.7109,675.6557,0.0000561,0.99744374,0.0000,07/19.7094/2019,2000,g 13.0,4.0
# From MPC117071
C/2019 J3 (ATLAS),h,08/01.9022/2019,131.4136,270.5188,16.5628,1.000042,2.373852,2000,13.5,4.0
# From MPC117071
C/2019 JU6 (ATLAS),e,148.2967,21.7378,94.8823,330.2304,0.0001642,0.99380637,0.0000,05/31.8655/2019,2000,g 14.5,4.0
# From MPC119997
C/2019 K1 (ATLAS),e,87.1484,73.3760,265.7102,39398,0.0000001,0.99994892,0.0000,02/12.9737/2020,2000,g 10.0,4.0
# From MPC119997
C/2019 K4 (Ye),e,105.3028,180.1641,139.7733,1788,0.0000130,0.99873602,0.0000,06/16.3816/2019,2000,g 12.5,4.0
# From MPC119997
C/2019 K5 (Young),e,15.3145,177.1743,174.9431,155.2795,0.0005094,0.98689352,0.0000,06/22.8070/2019,2000,g 13.0,4.0
# From MPC117071
A/2019 K6,e,132.3744,42.9402,187.6206,1553,0.0000161,0.99746959,0.0000,05/20.1993/2020,2000,g 13.6,2.0
# From MPC118095
C/2019 K7 (Smith),h,06/16.9406/2020,103.5369,307.9272,27.2987,1.000803,4.474937,2000,6.2,4.0
# From MPC119997
C/2019 K8 (ATLAS),e,93.2236,291.0442,85.3681,1927,0.0000117,0.99834149,0.0000,07/21.3171/2019,2000,g 11.5,4.0
# From MPC118095
C/2019 L1 (PANSTARRS),e,9.9933,254.4083,49.9395,9.834264,0.0319589,0.70606730,11.2389,07/28.0/2020,2000,g 13.5,4.0
# From MPC115886
C/2019 L2 (NEOWISE),e,152.1792,12.5866,18.7422,24.87598,0.0079439,0.93488726,3.8379,07/28.0/2020,2000,g 16.0,4.0
# From MPC119997
C/2019 L3 (ATLAS),h,01/09.7969/2022,48.3663,290.7835,171.6514,1.000651,3.553594,2000,4.5,4.0
# From MPC118095
C/2019 LB7 (Kleyna),e,164.2722,3.6239,336.3352,35.52523,0.0046548,0.93001502,2.2740,07/28.0/2020,2000,g 17.0,4.0
# From MPEC 2020-N31
P/2019 LD2 (ATLAS),e,11.5600,179.7008,123.4572,5.288979,0.0810301,0.13442255,8.8230,07/28.0/2020,2000,g  8.5,4.0
# From MPEC 2020-N31
C/2019 L3 (ATLAS),h,01/09.8434/2022,48.3664,290.7838,171.6518,1.000576,3.553734,2000,4.5,4.0
# From MPEC 2020-N31
P/2019 LM4 (Palomar),e,36.3936,72.8592,68.3811,5.717166,0.0720996,0.58511474,29.2553,07/28.0/2020,2000,g  9.5,4.0
# From MPEC 2020-N31
C/2019 N1 (ATLAS),e,82.4262,13.5741,193.4466,16955,0.0000004,0.99989946,0.0000,12/01.8051/2020,2000,g  7.5,4.0
# From MPEC 2020-N31
A/2019 O2,e,93.2862,48.3323,129.6444,57.39180,0.0022669,0.83127012,357.7708,07/28.0/2020,2000,g  9.5,2.0
# From MPEC 2020-N31
C/2019 )3,h,03/07.3619/2021,89.8146,300.3800,60.0159,1.001642,8.819731,2000,10.5,2.0
# From MPEC 2020-N31
A/2019 O4,e,115.0856,354.9200,61.8181,32.85315,0.0052341,0.88906549,0.8846,07/28.0/2020,2000,g 15.5,2.0
# From MPEC 2020-N31
C/2019 S4 (Lemmon),e,92.0249,63.1671,71.3569,238.4816,0.0002676,0.98556809,0.0000,04/07.9460/2020,2000,g 11.0,4.0
# From MPEC 2020-N31
A/2019 T1,e,120.8689,6.9502,91.0096,38.24457,0.0041672,0.88804285,359.2910,07/28.0/2020,2000,g 13.0,2.0
# From MPEC 2020-N31
C/2019 T2 (Lemmon),e,111.4694,155.6373,239.3875,2266,0.0000091,0.99883247,0.0000,04/22.3008/2021,2000,g  9.0,4.0
# From MPEC 2020-N31
C/2019 T3 (ATLAS),e,121.8627,139.5185,112.2579,5167,0.0000027,0.99884919,0.0000,03/02.5063/2021,2000,g  6.8,4.0
# From MPEC 2020-N31
A/2019 U5,h,03/30.4473/2023,113.5185,2.6648,181.5965,1.000110,3.621945,2000,10.0,2.0
# From MPEC 2020-N31
C/2019 U6 (Lemmon),e,61.0012,235.7058,329.6613,434.4389,0.0001088,0.99789556,0.0000,06/18.8226/2020,2000,g 10.0,4.0
# From MPEC 2020-N31
C/2019 Y1 (ATLAS),e,73.3493,31.3656,57.4968,231.9486,0.0002790,0.99638791,0.0000,03/15.5604/2020,2000,g 13.7,4.0
# From MPC118843
P/2019 M2 (ATLAS),e,12.2821,307.5964,332.5508,3.026143,0.1872276,0.64844727,75.1401,07/28.0/2020,2000,g 21.2,4.0
# From MPC118095
C/2019 M3 (ATLAS),h,01/02.9328/2019,99.4471,154.8963,87.9414,1.001748,2.418596,2000,12.2,4.0
# From MPC119997
C/2019 N1 (ATLAS),e,82.4261,13.5735,193.4463,26775,0.0000002,0.99993634,0.0000,12/01.7899/2020,2000,g  7.5,4.0
# From MPEC 2020-AA5
A/2019 O2,e,93.2859,48.3304,129.6707,57.40284,0.0022662,0.83134093,357.7706,07/28.0/2020,2000,g  9.5,2.0
# From MPC118843
C/2019 O3,h,03/07.6385/2021,89.8120,300.3785,60.0341,1.001758,8.818715,2000,10.0,2.0
# From MPC117072
A/2019 O4,e,115.0855,354.9200,61.8179,32.84551,0.0052359,0.88903925,0.8849,07/28.0/2020,2000,g 15.5,2.0
# From MPEC 2020-AA5
A/2019 Q1,h,07/19.8392/2020,155.7197,42.3357,55.9371,1.000343,4.996672,2000,12.5,2.0
# From MPC117072
A/2019 Q2,e,159.0211,188.0355,176.3001,57.69888,0.0022488,0.97821734,0.0000,07/22.3581/2019,2000,g 18.0,2.0
# From MPC117072
C/2019 Q3 (PANSTARRS),h,08/21.1722/2018,65.5281,151.3242,152.6602,1.004451,7.251867,2000,8.5,4.0
# From MPC117072
P/2019 S2 (PANSTARRS),e,10.4732,93.1267,216.7958,4.735224,0.0956518,0.20682317,50.0087,07/28.0/2020,2000,g 13.5,4.0
# From MPC118096
P/2019 S3 (PANSTARRS),e,8.6930,150.1626,212.9707,3.414308,0.1562248,0.47083425,52.6247,07/28.0/2020,2000,g 18.3,4.0
# From MPEC 2020-HN5
